0 COSMOS 2251 DEB
1 38203U 93036BST 13280.47847139  .00018399  00000-0  18454-2 0  1170
2 38203 073.9138 317.1618 0063522 148.6993 211.8371 14.89782839199320
0 COSMOS 2251 DEB
1 38203U 93036BST 13283.43305654  .00019107  00000-0  19008-2 0  1185
2 38203 073.9458 311.2990 0067474 142.3268 218.4277 14.89904977199764
0 COSMOS 2251 DEB
1 38203U 93036BST 13284.44021616  .00019697  00000-0  19571-2 0  1190
2 38203 073.9534 309.2611 0067321 142.0572 218.7493 14.89955277199911
0 COSMOS 2251 DEB
1 38203U 93036BST 13287.73011795  .00027983  00000-0  27794-2 0  1207
2 38203 073.9248 302.6542 0061267 128.2257 233.3832 14.90191193200400
0 COSMOS 2251 DEB
1 38203U 93036BST 13290.34803312  .00031412  00000-0  30774-2 0  1217
2 38203 073.9975 297.4294 0068007 133.6010 227.7026 14.90384630200792
0 COSMOS 2251 DEB
1 38203U 93036BST 13291.35477625  .00034402  00000-0  33302-2 0  1226
2 38203 073.9959 295.4116 0074810 131.4498 229.4611 14.90472268200941
0 COSMOS 2251 DEB
1 38203U 93036BST 13291.69035321  .00034899  00000-0  33938-2 0  1232
2 38203 073.9647 294.6955 0070975 127.4691 233.2799 14.90498095200996
0 COSMOS 2251 DEB
1 38203U 93036BST 13293.36829052  .00037907  00000-0  36964-2 0  1246
2 38203 073.9529 291.3149 0065660 121.0636 239.8381 14.90643129201246
